0 THORAD AGENA D DEB
1 04311U 69082DR  13281.83482130  .00002091  00000-0  49176-3 0  1240
2 04311 070.3389 080.5629 0074026 181.9538 292.2066 14.54078002300567
0 THORAD AGENA D DEB
1 04311U 69082DR  13284.10522256  .00003197  00000-0  74358-3 0  1256
2 04311 070.3393 075.3139 0073980 178.5602 297.0867 14.54090844300898
0 THORAD AGENA D DEB
1 04311U 69082DR  13286.15707124  .00002582  00000-0  60338-3 0  1263
2 04311 070.3394 070.5672 0073806 175.5057 237.9716 14.54101093301195
0 THORAD AGENA D DEB
1 04311U 69082DR  13288.49795407  .00003797  00000-0  88017-3 0  1277
2 04311 070.3402 065.1524 0073570 172.0195 251.9750 14.54115512301537
0 THORAD AGENA D DEB
1 04311U 69082DR  13290.77777904  .00003506  00000-0  81371-3 0  1288
2 04311 070.3411 059.8790 0073348 168.5958 306.5098 14.54131104301865
0 THORAD AGENA D DEB
1 04311U 69082DR  13292.78128825  .00003310  00000-0  76917-3 0  1297
2 04311 070.3413 055.2450 0073168 165.5775 354.6806 14.54141203302159
0 THORAD AGENA D DEB
1 04311U 69082DR  13295.17141164  .00003636  00000-0  84322-3 0  1306
2 04311 070.3412 049.7165 0072929 161.9977 266.8292 14.54154925302504
